O3B FM20                
1 44112U 19020A   26073.46384828 -.00000021  00000+0  00000+0 0  9997
2 44112   0.0522   0.0201 0002760 341.4113  18.5550  5.00115522126833
O3B FM19                
1 44113U 19020B   26073.49096494 -.00000021  00000+0  00000+0 0  9990
2 44113   0.0584 353.1534 0004215 353.6375  13.1945  5.00115992126699
O3B FM17                
1 44114U 19020C   26072.77146366 -.00000022  00000+0  00000+0 0  9996
2 44114   0.0382 342.2165 0002664   5.4523  12.3211  5.00115442126752
O3B FM18                
1 44115U 19020D   26073.51732291 -.00000020  00000+0  00000+0 0  9996
2 44115   0.0525   0.3193 0002728 354.0751   5.5990  5.00115259126914
SALSAT                  
1 46495U 20068K   26073.51831201  .00012617  00000+0  46004-3 0  9996
2 46495  97.8858  70.9296 0008068 275.9056  84.1263 15.28293668300898
O3B MPOWER F1           
1 54755U 22174A   26073.45567101 -.00000021  00000+0  00000+0 0  9991
2 54755   0.0635 350.4497 0005435  19.2147  99.1230  5.00114976 60626
O3B MPOWER F2           
1 54756U 22174B   26062.53384886 -.00000028  00000+0  00000+0 0  9993
2 54756   0.1272 326.2177 0046125  76.0907 318.0389  5.00690325 60150
O3B MPOWER F4           
1 56367U 23059A   26048.24074746 -.00000015  00000+0  00000+0 0  9995
2 56367   0.0593   7.9241 0006460 334.3658  17.6828  5.00119607 52601
